[
    {
        "Altitude(m)": 563364.2677701274,
        "Argument of Periapsis(deg)": 0.013245982221427002,
        "Eccentricity": 0.0,
        "Inclination(deg)": 53.0,
        "Latitude(deg)": -32.24186612004054,
        "Longitude(deg)": 15.213124562560225,
        "Mean Anomaly(deg)": -41.63491426484484,
        "RAAN(deg)": 144.98028673705605,
        "Satellite Name": "Starlink Shell 1 656",
        "Satellite Number": 656,
        "Semi-Major Axis(m)": 6931778.249405717,
        "Time(s)": 380
    },
    {
        "Altitude(m)": 563188.976688686,
        "Argument of Periapsis(deg)": 0.013594560700938237,
        "Eccentricity": 0.0,
        "Inclination(deg)": 53.0,
        "Latitude(deg)": -31.798803777249418,
        "Longitude(deg)": 15.693722939624038,
        "Mean Anomaly(deg)": -41.00808306128809,
        "RAAN(deg)": 144.97976796697859,
        "Satellite Name": "Starlink Shell 1 656",
        "Satellite Number": 656,
        "Semi-Major Axis(m)": 6931778.249405717,
        "Time(s)": 390
    },
    {
        "Altitude(m)": 563013.5852054388,
        "Argument of Periapsis(deg)": 0.013943139180449475,
        "Eccentricity": 0.0,
        "Inclination(deg)": 53.0,
        "Latitude(deg)": -31.353578743724867,
        "Longitude(deg)": 16.16937221164384,
        "Mean Anomaly(deg)": -40.38125185773142,
        "RAAN(deg)": 144.9792491969011,
        "Satellite Name": "Starlink Shell 1 656",
        "Satellite Number": 656,
        "Semi-Major Axis(m)": 6931778.249405717,
        "Time(s)": 400
    },
    {
        "Altitude(m)": 562838.1595042844,
        "Argument of Periapsis(deg)": 0.014291717659960712,
        "Eccentricity": 0.0,
        "Inclination(deg)": 53.0,
        "Latitude(deg)": -30.90624677107693,
        "Longitude(deg)": 16.64018134848527,
        "Mean Anomaly(deg)": -39.75442065417466,
        "RAAN(deg)": 144.97873042682363,
        "Satellite Name": "Starlink Shell 1 656",
        "Satellite Number": 656,
        "Semi-Major Axis(m)": 6931778.249405717,
        "Time(s)": 410
    },
    {
        "Altitude(m)": 562662.7656384982,
        "Argument of Periapsis(deg)": 0.014640296139471948,
        "Eccentricity": 0.0,
        "Inclination(deg)": 53.0,
        "Latitude(deg)": -30.456862365935002,
        "Longitude(deg)": 17.10625760909711,
        "Mean Anomaly(deg)": -39.12758945061792,
        "RAAN(deg)": 144.97821165674617,
        "Satellite Name": "Starlink Shell 1 656",
        "Satellite Number": 656,
        "Semi-Major Axis(m)": 6931778.249405717,
        "Time(s)": 420
    },
    {
        "Altitude(m)": 562487.4695011235,
        "Argument of Periapsis(deg)": 0.014988874618983185,
        "Eccentricity": 0.0,
        "Inclination(deg)": 53.0,
        "Latitude(deg)": -30.005478821921102,
        "Longitude(deg)": 17.56770701993499,
        "Mean Anomaly(deg)": -38.500758247061235,
        "RAAN(deg)": 144.97769288666868,
        "Satellite Name": "Starlink Shell 1 656",
        "Satellite Number": 656,
        "Semi-Major Axis(m)": 6931778.249405717,
        "Time(s)": 430
    },
    {
        "Altitude(m)": 562312.3367954607,
        "Argument of Periapsis(deg)": 0.015337453098494424,
        "Eccentricity": 0.0,
        "Inclination(deg)": 53.0,
        "Latitude(deg)": -29.552148251368752,
        "Longitude(deg)": 18.024634858088504,
        "Mean Anomaly(deg)": -37.87392704350449,
        "RAAN(deg)": 144.9771741165912,
        "Satellite Name": "Starlink Shell 1 656",
        "Satellite Number": 656,
        "Semi-Major Axis(m)": 6931778.249405717,
        "Time(s)": 440
    },
    {
        "Altitude(m)": 562137.4330055772,
        "Argument of Periapsis(deg)": 0.01568603157800566,
        "Eccentricity": 0.0,
        "Inclination(deg)": 53.0,
        "Latitude(deg)": -29.096921616746695,
        "Longitude(deg)": 18.477144625900504,
        "Mean Anomaly(deg)": -37.24709583994784,
        "RAAN(deg)": 144.97665534651375,
        "Satellite Name": "Starlink Shell 1 656",
        "Satellite Number": 656,
        "Semi-Major Axis(m)": 6931778.249405717,
        "Time(s)": 450
    },
    {
        "Altitude(m)": 561962.8233669931,
        "Argument of Periapsis(deg)": 0.0160346100575169,
        "Eccentricity": 0.0,
        "Inclination(deg)": 53.0,
        "Latitude(deg)": -28.639848761741217,
        "Longitude(deg)": 18.925338542505084,
        "Mean Anomaly(deg)": -36.620264636391056,
        "RAAN(deg)": 144.97613657643626,
        "Satellite Name": "Starlink Shell 1 656",
        "Satellite Number": 656,
        "Semi-Major Axis(m)": 6931778.249405717,
        "Time(s)": 460
    },
    {
        "Altitude(m)": 561788.5728373942,
        "Argument of Periapsis(deg)": 0.016383188537028134,
        "Eccentricity": 0.0,
        "Inclination(deg)": 53.0,
        "Latitude(deg)": -28.180978441967614,
        "Longitude(deg)": 19.369318039107508,
        "Mean Anomaly(deg)": -35.99343343283431,
        "RAAN(deg)": 144.9756178063588,
        "Satellite Name": "Starlink Shell 1 656",
        "Satellite Number": 656,
        "Semi-Major Axis(m)": 6931778.249405717,
        "Time(s)": 470
    },
    {
        "Altitude(m)": 561614.7460674988,
        "Argument of Periapsis(deg)": 0.01673176701653937,
        "Eccentricity": 0.0,
        "Inclination(deg)": 53.0,
        "Latitude(deg)": -27.720358355282002,
        "Longitude(deg)": 19.80918274484985,
        "Mean Anomaly(deg)": -35.36660222927765,
        "RAAN(deg)": 144.9750990362813,
        "Satellite Name": "Starlink Shell 1 656",
        "Satellite Number": 656,
        "Semi-Major Axis(m)": 6931778.249405717,
        "Time(s)": 480
    },
    {
        "Altitude(m)": 561441.4073720847,
        "Argument of Periapsis(deg)": 0.017080345496050607,
        "Eccentricity": 0.0,
        "Inclination(deg)": 53.0,
        "Latitude(deg)": -27.25803517166325,
        "Longitude(deg)": 20.24503098873914,
        "Mean Anomaly(deg)": -34.73977102572098,
        "RAAN(deg)": 144.97458026620384,
        "Satellite Name": "Starlink Shell 1 656",
        "Satellite Number": 656,
        "Semi-Major Axis(m)": 6931778.249405717,
        "Time(s)": 490
    },
    {
        "Altitude(m)": 561268.6207011095,
        "Argument of Periapsis(deg)": 0.017428923975561842,
        "Eccentricity": 0.0,
        "Inclination(deg)": 53.0,
        "Latitude(deg)": -26.79405456264632,
        "Longitude(deg)": 20.676960304512413,
        "Mean Anomaly(deg)": -34.11293982216422,
        "RAAN(deg)": 144.97406149612635,
        "Satellite Name": "Starlink Shell 1 656",
        "Satellite Number": 656,
        "Semi-Major Axis(m)": 6931778.249405717,
        "Time(s)": 500
    },
    {
        "Altitude(m)": 561096.4496110376,
        "Argument of Periapsis(deg)": 0.01777750245507308,
        "Eccentricity": 0.0,
        "Inclination(deg)": 53.0,
        "Latitude(deg)": -26.328461230291072,
        "Longitude(deg)": 21.10506642532965,
        "Mean Anomaly(deg)": -33.486108618607474,
        "RAAN(deg)": 144.97354272604892,
        "Satellite Name": "Starlink Shell 1 656",
        "Satellite Number": 656,
        "Semi-Major Axis(m)": 6931778.249405717,
        "Time(s)": 510
    },
    {
        "Altitude(m)": 560924.9572363326,
        "Argument of Periapsis(deg)": 0.018126080934584315,
        "Eccentricity": 0.0,
        "Inclination(deg)": 53.0,
        "Latitude(deg)": -25.86129893566549,
        "Longitude(deg)": 21.52944379381848,
        "Mean Anomaly(deg)": -32.859277415050805,
        "RAAN(deg)": 144.97302395597143,
        "Satellite Name": "Starlink Shell 1 656",
        "Satellite Number": 656,
        "Semi-Major Axis(m)": 6931778.249405717,
        "Time(s)": 520
    },
    {
        "Altitude(m)": 560754.2062611389,
        "Argument of Periapsis(deg)": 0.018474659414095554,
        "Eccentricity": 0.0,
        "Inclination(deg)": 53.0,
        "Latitude(deg)": -25.392610526835128,
        "Longitude(deg)": 21.950186074389574,
        "Mean Anomaly(deg)": -32.23244621149415,
        "RAAN(deg)": 144.97250518589397,
        "Satellite Name": "Starlink Shell 1 656",
        "Satellite Number": 656,
        "Semi-Major Axis(m)": 6931778.249405717,
        "Time(s)": 530
    },
    {
        "Altitude(m)": 560584.2588911616,
        "Argument of Periapsis(deg)": 0.018823237893606792,
        "Eccentricity": 0.0,
        "Inclination(deg)": 53.0,
        "Latitude(deg)": -24.922437966350955,
        "Longitude(deg)": 22.367385154755418,
        "Mean Anomaly(deg)": -31.6056150079374,
        "RAAN(deg)": 144.97198641581647,
        "Satellite Name": "Starlink Shell 1 656",
        "Satellite Number": 656,
        "Semi-Major Axis(m)": 6931778.249405717,
        "Time(s)": 540
    },
    {
        "Altitude(m)": 560415.1768257802,
        "Argument of Periapsis(deg)": 0.019171816373118027,
        "Eccentricity": 0.0,
        "Inclination(deg)": 53.0,
        "Latitude(deg)": -24.450822358224208,
        "Longitude(deg)": 22.781131662216662,
        "Mean Anomaly(deg)": -30.978783804380615,
        "RAAN(deg)": 144.971467645739,
        "Satellite Name": "Starlink Shell 1 656",
        "Satellite Number": 656,
        "Semi-Major Axis(m)": 6931778.249405717,
        "Time(s)": 550
    },
    {
        "Altitude(m)": 560247.0212303931,
        "Argument of Periapsis(deg)": 0.019520394852629266,
        "Eccentricity": 0.0,
        "Inclination(deg)": 53.0,
        "Latitude(deg)": -23.977803974385353,
        "Longitude(deg)": 23.19151548167451,
        "Mean Anomaly(deg)": -30.35195260082398,
        "RAAN(deg)": 144.97094887566152,
        "Satellite Name": "Starlink Shell 1 656",
        "Satellite Number": 656,
        "Semi-Major Axis(m)": 6931778.249405717,
        "Time(s)": 560
    }
]